{
  "type": "FeatureCollection",
  "features": [
    {
      "type": "Feature",
      "properties": {
        "norad_id": 58647,
        "name": "TIANMU-1 13",
        "group": "weather",
        "lat": 82.36340804279115,
        "lon": -60.43044494108704,
        "alt_km": 487.9552057271194,
        "timestamp": "2025-12-20T16:47:35.934465+00:00",
        "meta_object_name": "TIANMU-1 13",
        "meta_object_id": "2023-205C",
        "meta_epoch": "2025-12-20T11:40:58.476288",
        "meta_mean_motion": 15.24614832,
        "meta_eccentricity": 0.0006283,
        "meta_inclination": 97.3611,
        "meta_ra_of_asc_node": 13.9812,
        "meta_arg_of_pericenter": 232.4638,
        "meta_mean_anomaly": 127.6029,
        "meta_ephemeris_type": 0,
        "meta_classification_type": "U",
        "meta_norad_cat_id": 58647,
        "meta_element_set_no": 999,
        "meta_rev_at_epoch": 11025,
        "meta_bstar": 0.00018637,
        "meta_mean_motion_dot": 4.528e-05,
        "meta_mean_motion_ddot": 0,
        "tle_line1": "1 58647U 23205C   25354.48678792  .00004528  00000+0  18637-3 0  9998",
        "tle_line2": "2 58647  97.3611  13.9812 0006283 232.4638 127.6029 15.24614832110252"
      },
      "geometry": {
        "type": "Point",
        "coordinates": [
          -60.43044494108704,
          82.36340804279115
        ]
      }
    },
    {
      "type": "Feature",
      "properties": {
        "norad_id": 58648,
        "name": "TIANMU-1 14",
        "group": "weather",
        "lat": 1.3434657145354176,
        "lon": -166.29463921566634,
        "alt_km": 492.4479372986425,
        "timestamp": "2025-12-20T16:47:35.934483+00:00",
        "meta_object_name": "TIANMU-1 14",
        "meta_object_id": "2023-205D",
        "meta_epoch": "2025-12-20T12:51:42.231744",
        "meta_mean_motion": 15.24598417,
        "meta_eccentricity": 0.0007023,
        "meta_inclination": 97.3542,
        "meta_ra_of_asc_node": 13.371,
        "meta_arg_of_pericenter": 238.4861,
        "meta_mean_anomaly": 121.5691,
        "meta_ephemeris_type": 0,
        "meta_classification_type": "U",
        "meta_norad_cat_id": 58648,
        "meta_element_set_no": 999,
        "meta_rev_at_epoch": 11026,
        "meta_bstar": 0.00018325,
        "meta_mean_motion_dot": 4.449e-05,
        "meta_mean_motion_ddot": 0,
        "tle_line1": "1 58648U 23205D   25354.53590546  .00004449  00000+0  18325-3 0  9991",
        "tle_line2": "2 58648  97.3542  13.3710 0007023 238.4861 121.5691 15.24598417110263"
      },
      "geometry": {
        "type": "Point",
        "coordinates": [
          -166.29463921566634,
          1.3434657145354176
        ]
      }
    },
    {
      "type": "Feature",
      "properties": {
        "norad_id": 58660,
        "name": "TIANMU-1 19",
        "group": "weather",
        "lat": 10.0139960944589,
        "lon": -72.95602703215637,
        "alt_km": 481.5008289302923,
        "timestamp": "2025-12-20T16:47:35.934504+00:00",
        "meta_object_name": "TIANMU-1 19",
        "meta_object_id": "2023-208A",
        "meta_epoch": "2025-12-20T11:20:13.865280",
        "meta_mean_motion": 15.27980809,
        "meta_eccentricity": 0.0004471,
        "meta_inclination": 97.4396,
        "meta_ra_of_asc_node": 105.4949,
        "meta_arg_of_pericenter": 218.8828,
        "meta_mean_anomaly": 141.209,
        "meta_ephemeris_type": 0,
        "meta_classification_type": "U",
        "meta_norad_cat_id": 58660,
        "meta_element_set_no": 999,
        "meta_rev_at_epoch": 11000,
        "meta_bstar": 0.0002469,
        "meta_mean_motion_dot": 6.667e-05,
        "meta_mean_motion_ddot": 0,
        "tle_line1": "1 58660U 23208A   25354.47238270  .00006667  00000+0  24690-3 0  9990",
        "tle_line2": "2 58660  97.4396 105.4949 0004471 218.8828 141.2090 15.27980809110008"
      },
      "geometry": {
        "type": "Point",
        "coordinates": [
          -72.95602703215637,
          10.0139960944589
        ]
      }
    },
    {
      "type": "Feature",
      "properties": {
        "norad_id": 58661,
        "name": "TIANMU-1 20",
        "group": "weather",
        "lat": -78.98532940474364,
        "lon": 148.30276228090128,
        "alt_km": 482.4913580388311,
        "timestamp": "2025-12-20T16:47:35.934521+00:00",
        "meta_object_name": "TIANMU-1 20",
        "meta_object_id": "2023-208B",
        "meta_epoch": "2025-12-20T14:00:35.479008",
        "meta_mean_motion": 15.29172819,
        "meta_eccentricity": 0.0006565,
        "meta_inclination": 97.4333,
        "meta_ra_of_asc_node": 106.0614,
        "meta_arg_of_pericenter": 232.895,
        "meta_mean_anomaly": 127.1691,
        "meta_ephemeris_type": 0,
        "meta_classification_type": "U",
        "meta_norad_cat_id": 58661,
        "meta_element_set_no": 999,
        "meta_rev_at_epoch": 11009,
        "meta_bstar": 0.00023522,
        "meta_mean_motion_dot": 6.587e-05,
        "meta_mean_motion_ddot": 0,
        "tle_line1": "1 58661U 23208B   25354.58374397  .00006587  00000+0  23522-3 0  9998",
        "tle_line2": "2 58661  97.4333 106.0614 0006565 232.8950 127.1691 15.29172819110099"
      },
      "geometry": {
        "type": "Point",
        "coordinates": [
          148.30276228090128,
          -78.98532940474364
        ]
      }
    },
    {
      "type": "Feature",
      "properties": {
        "norad_id": 58662,
        "name": "TIANMU-1 21",
        "group": "weather",
        "lat": -5.000989412318545,
        "lon": 108.77644870096076,
        "alt_km": 477.0868408921997,
        "timestamp": "2025-12-20T16:47:35.934537+00:00",
        "meta_object_name": "TIANMU-1 21",
        "meta_object_id": "2023-208C",
        "meta_epoch": "2025-12-20T13:40:46.252128",
        "meta_mean_motion": 15.31706697,
        "meta_eccentricity": 0.000622,
        "meta_inclination": 97.4381,
        "meta_ra_of_asc_node": 107.9912,
        "meta_arg_of_pericenter": 227.2348,
        "meta_mean_anomaly": 132.837,
        "meta_ephemeris_type": 0,
        "meta_classification_type": "U",
        "meta_norad_cat_id": 58662,
        "meta_element_set_no": 999,
        "meta_rev_at_epoch": 11019,
        "meta_bstar": 0.00024952,
        "meta_mean_motion_dot": 7.564e-05,
        "meta_mean_motion_ddot": 0,
        "tle_line1": "1 58662U 23208C   25354.56997977  .00007564  00000+0  24952-3 0  9996",
        "tle_line2": "2 58662  97.4381 107.9912 0006220 227.2348 132.8370 15.31706697110199"
      },
      "geometry": {
        "type": "Point",
        "coordinates": [
          108.77644870096076,
          -5.000989412318545
        ]
      }
    },
    {
      "type": "Feature",
      "properties": {
        "norad_id": 58663,
        "name": "TIANMU-1 22",
        "group": "weather",
        "lat": 15.928052106319264,
        "lon": -72.08576852743738,
        "alt_km": 483.1268934999689,
        "timestamp": "2025-12-20T16:47:35.934553+00:00",
        "meta_object_name": "TIANMU-1 22",
        "meta_object_id": "2023-208D",
        "meta_epoch": "2025-12-20T11:21:44.487648",
        "meta_mean_motion": 15.27725773,
        "meta_eccentricity": 0.0002746,
        "meta_inclination": 97.4389,
        "meta_ra_of_asc_node": 105.5515,
        "meta_arg_of_pericenter": 245.997,
        "meta_mean_anomaly": 114.0982,
        "meta_ephemeris_type": 0,
        "meta_classification_type": "U",
        "meta_norad_cat_id": 58663,
        "meta_element_set_no": 999,
        "meta_rev_at_epoch": 11001,
        "meta_bstar": 0.0002296,
        "meta_mean_motion_dot": 6.145e-05,
        "meta_mean_motion_ddot": 0,
        "tle_line1": "1 58663U 23208D   25354.47343157  .00006145  00000+0  22960-3 0  9993",
        "tle_line2": "2 58663  97.4389 105.5515 0002746 245.9970 114.0982 15.27725773110011"
      },
      "geometry": {
        "type": "Point",
        "coordinates": [
          -72.08576852743738,
          15.928052106319264
        ]
      }
    },
    {
      "type": "Feature",
      "properties": {
        "norad_id": 58700,
        "name": "TIANMU-1 15",
        "group": "weather",
        "lat": -21.53256573945674,
        "lon": -6.825221661839939,
        "alt_km": 495.3359411514757,
        "timestamp": "2025-12-20T16:47:35.934569+00:00",
        "meta_object_name": "TIANMU-1 15",
        "meta_object_id": "2024-004A",
        "meta_epoch": "2025-12-20T12:45:37.957248",
        "meta_mean_motion": 15.24501743,
        "meta_eccentricity": 0.0005945,
        "meta_inclination": 97.4621,
        "meta_ra_of_asc_node": 175.9719,
        "meta_arg_of_pericenter": 257.0898,
        "meta_mean_anomaly": 102.9676,
        "meta_ephemeris_type": 0,
        "meta_classification_type": "U",
        "meta_norad_cat_id": 58700,
        "meta_element_set_no": 999,
        "meta_rev_at_epoch": 10853,
        "meta_bstar": 0.000203,
        "meta_mean_motion_dot": 4.92e-05,
        "meta_mean_motion_ddot": 0,
        "tle_line1": "1 58700U 24004A   25354.53168932  .00004920  00000+0  20300-3 0  9998",
        "tle_line2": "2 58700  97.4621 175.9719 0005945 257.0898 102.9676 15.24501743108532"
      },
      "geometry": {
        "type": "Point",
        "coordinates": [
          -6.825221661839939,
          -21.53256573945674
        ]
      }
    }
  ]
}